OBJECT_NAME,OBJECT_ID,EPOCH,MEAN_MOTION,ECCENTRICITY,INCLINATION,RA_OF_ASC_NODE,ARG_OF_PERICENTER,MEAN_ANOMALY,EPHEMERIS_TYPE,CLASSIFICATION_TYPE,NORAD_CAT_ID,ELEMENT_SET_NO,REV_AT_EPOCH,BSTAR,MEAN_MOTION_DOT,MEAN_MOTION_DDOT
LEMUR-2-FINNIAN,2025-276DX,2026-06-26T03:36:06.822144,15.00460441,.00086265,97.5321,247.8587,63.2247,296.9859,0,U,66782,999,2134,.36599326E-3,.4553E-4,0
LEMUR-2-STARLIGHT,2025-276DY,2026-06-26T21:58:09.425568,14.99146175,.00147037,97.5246,248.2217,100.3708,259.9173,0,U,66783,999,3165,.58165511E-3,.7036E-4,0
LEMUR-2-TARTIFLETTE,2025-276DZ,2026-06-26T21:55:46.192512,14.99157436,.00136695,97.5249,248.2276,107.4422,252.8297,0,U,66784,999,3165,.50805577E-3,.6138E-4,0
LEMUR-2-VUKASIN,2025-276EA,2026-06-26T21:34:32.869056,15.00425985,.00055017,97.5292,248.5338,101.3034,258.8808,0,U,66785,999,3160,.12867149E-3,.1561E-4,0
LEMUR-2-HOTSPUR-TOM,2025-276EB,2026-06-26T21:46:01.585920,14.99057280,.00147368,97.5244,248.2002,99.4245,260.8645,0,U,66786,999,3158,.50928935E-3,.6139E-4,0
LEMUR-2-MYRA,2025-276EC,2026-06-26T22:20:47.195520,15.00377147,.00176929,97.5221,248.4924,110.1491,250.1638,0,U,66787,999,3167,.62068166E-3,.7766E-4,0
LEMUR-2 FIKRETDENGIZ,2026-004A,2026-06-26T22:47:47.170464,14.88392743,.0010591,97.8013,176.3578,105.6843,254.5543,0,U,67363,999,2473,.51250227E-3,.4701E-4,0
TWILIGHT-1 OBJECT B,2026-004B,2026-06-26T23:29:01.338144,14.87734551,.00102828,97.8063,176.3969,96.9844,263.2542,0,U,67364,999,2474,.20865257E-3,.185E-4,0
LEMUR-2-MARIO-SOUSA,2026-004C,2026-06-26T22:22:22.888704,14.88587230,.00101405,97.7984,176.3361,106.7246,253.5085,0,U,67365,999,2474,.53262936E-3,.4911E-4,0
LEMUR-2-SONNENBLUME,2026-004E,2026-06-26T22:22:02.661600,14.88363917,.00096374,97.7984,176.3166,108.0943,252.1324,0,U,67367,999,2474,.36193548E-3,.33E-4,0
LEMUR-2-WOBLER,2026-004F,2026-06-26T22:10:42.512160,14.88578885,.00099588,97.8035,176.4409,99.3886,260.8457,0,U,67368,999,2474,.43669828E-3,.4015E-4,0
LEMUR-2-GRAM-E-SUE,2026-004H,2026-06-26T23:34:34.025664,14.88511668,.00087232,97.7972,176.3820,109.1241,251.0921,0,U,67370,999,2475,.25515291E-3,.2318E-4,0
LEMUR-2-KATIE,2026-004AA,2026-06-26T11:44:22.166880,14.90102051,.0004737,97.8033,176.3860,74.1849,285.9891,0,U,67387,999,2469,.38064E-3,.3625E-4,0
LEMUR-2-HCS-BAZUS,2026-004AB,2026-06-26T22:59:32.680032,14.90161977,.000422,97.8021,176.8292,71.9591,288.2087,0,U,67388,999,2476,.60785976E-3,.5833E-4,0
