LEMUR-2-FINNIAN         
1 66782U 25276DX  26177.15007896  .00004553  00000+0  36599-3 0  9991
2 66782  97.5321 247.8587 0008626  63.2247 296.9859 15.00460441 21348
LEMUR-2-STARLIGHT       
1 66783U 25276DY  26177.91538687  .00007036  00000+0  58166-3 0  9996
2 66783  97.5246 248.2217 0014703 100.3708 259.9173 14.99146175 31653
LEMUR-2-TARTIFLETTE     
1 66784U 25276DZ  26177.91372908  .00006138  00000+0  50806-3 0  9994
2 66784  97.5249 248.2276 0013669 107.4422 252.8297 14.99157436 31654
LEMUR-2-VUKASIN         
1 66785U 25276EA  26177.89899154  .00001561  00000+0  12867-3 0  9999
2 66785  97.5292 248.5338 0005501 101.3034 258.8808 15.00425985 31602
LEMUR-2-HOTSPUR-TOM     
1 66786U 25276EB  26177.90696280  .00006139  00000+0  50929-3 0  9994
2 66786  97.5244 248.2002 0014736  99.4245 260.8645 14.99057280 31581
LEMUR-2-MYRA            
1 66787U 25276EC  26177.93110180  .00007766  00000+0  62068-3 0  9992
2 66787  97.5221 248.4924 0017692 110.1491 250.1638 15.00377147 31674
LEMUR-2 FIKRETDENGIZ    
1 67363U 26004A   26177.94985151  .00004701  00000+0  51250-3 0  9999
2 67363  97.8013 176.3578 0010591 105.6843 254.5543 14.88392743 24738
TWILIGHT-1 OBJECT B     
1 67364U 26004B   26177.97848771  .00001850  00000+0  20865-3 0  9999
2 67364  97.8063 176.3969 0010282  96.9844 263.2542 14.87734551 24741
LEMUR-2-MARIO-SOUSA     
1 67365U 26004C   26177.93220936  .00004911  00000+0  53263-3 0  9992
2 67365  97.7984 176.3361 0010140 106.7246 253.5085 14.88587230 24743
LEMUR-2-SONNENBLUME     
1 67367U 26004E   26177.93197525  .00003300  00000+0  36194-3 0  9996
2 67367  97.7984 176.3166 0009637 108.0943 252.1324 14.88363917 24741
LEMUR-2-WOBLER          
1 67368U 26004F   26177.92410315  .00004015  00000+0  43670-3 0  9992
2 67368  97.8035 176.4409 0009958  99.3886 260.8457 14.88578885 24740
LEMUR-2-GRAM-E-SUE      
1 67370U 26004H   26177.98233826  .00002318  00000+0  25515-3 0  9993
2 67370  97.7972 176.3820 0008723 109.1241 251.0921 14.88511668 24757
LEMUR-2-KATIE           
1 67387U 26004AA  26177.48914545  .00003625  00000+0  38064-3 0  9995
2 67387  97.8033 176.3860 0004737  74.1849 285.9891 14.90102051 24694
LEMUR-2-HCS-BAZUS       
1 67388U 26004AB  26177.95801713  .00005833  00000+0  60786-3 0  9999
2 67388  97.8021 176.8292 0004220  71.9591 288.2087 14.90161977 24765
